GLOBALSTAR M057         
1 25943U 99058A   25076.63308891 -.00000080  00000+0  11717-3 0  9990
2 25943  51.9968 248.0336 0002878 170.5547 189.5357 12.24815849155714
GLOBALSTAR M059         
1 25944U 99058B   25076.82328520 -.00000069  00000+0  20707-3 0  9999
2 25944  52.0001  94.3396 0000702 134.0883  38.1498 11.99974771563073
GLOBALSTAR M031         
1 25946U 99058D   25076.93023384 -.00000003  00000+0  89027-3 0  9991
2 25946  51.9997 356.1493 0001639  13.7803  63.7411 12.16031008153441
GLOBALSTAR M039         
1 25961U 99062A   25076.63246599 -.00000055  00000+0  26936-3 0  9992
2 25961  51.9837 187.5736 0003343 140.1674 219.9439 12.62320973168659
GLOBALSTAR M034         
1 25962U 99062B   25076.95384941 -.00000068  00000+0  19816-3 0  9995
2 25962  51.9853 248.5427 0013629 225.3751 298.5460 11.79445765127626
GLOBALSTAR M029         
1 25963U 99062C   25076.89230920 -.00000066  00000+0  25453-3 0  9998
2 25963  51.9838 342.2712 0002133 311.6625 145.8474 11.99892555158163
GLOBALSTAR M061         
1 25964U 99062D   25076.88823603 -.00000063  00000+0  28645-3 0  9997
2 25964  51.9789  71.5325 0006073 152.2662 232.9826 11.76772055110432
